CCSDS_OMM_VERS = 2.0
CREATION_DATE  = 
ORIGINATOR     = 

OBJECT_NAME    = STARLINK-36411
OBJECT_ID      = 2026-018V
CENTER_NAME    = EARTH
REF_FRAME      = TEME
TIME_SYSTEM    = UTC
MEAN_ELEMENT_THEORY = SGP/SGP4

EPOCH          = 2026-02-05T18:00:02.000160
MEAN_MOTION    = 15.98419105
ECCENTRICITY   = .00014436
INCLINATION    = 97.2769
RA_OF_ASC_NODE = 100.8504
ARG_OF_PERICENTER = 82.5393
MEAN_ANOMALY   = 192.2311

EPHEMERIS_TYPE = 0
CLASSIFICATION_TYPE = U
NORAD_CAT_ID   = 67608
ELEMENT_SET_NO = 999
REV_AT_EPOCH   = 225
BSTAR          = -.37394676E-2
MEAN_MOTION_DOT = -.1719378E-1
MEAN_MOTION_DDOT = .87959591E-3

CCSDS_OMM_VERS = 2.0
CREATION_DATE  = 
ORIGINATOR     = 

OBJECT_NAME    = STARLINK-36312
OBJECT_ID      = 2026-018W
CENTER_NAME    = EARTH
REF_FRAME      = TEME
TIME_SYSTEM    = UTC
MEAN_ELEMENT_THEORY = SGP/SGP4

EPOCH          = 2026-02-05T18:00:02.000160
MEAN_MOTION    = 15.98605185
ECCENTRICITY   = .00014526
INCLINATION    = 97.2770
RA_OF_ASC_NODE = 100.8517
ARG_OF_PERICENTER = 80.6887
MEAN_ANOMALY   = 196.8870

EPHEMERIS_TYPE = 0
CLASSIFICATION_TYPE = U
NORAD_CAT_ID   = 67609
ELEMENT_SET_NO = 999
REV_AT_EPOCH   = 226
BSTAR          = -.3676128E-2
MEAN_MOTION_DOT = -.1707922E-1
MEAN_MOTION_DDOT = .87047867E-3

CCSDS_OMM_VERS = 2.0
CREATION_DATE  = 
ORIGINATOR     = 

OBJECT_NAME    = STARLINK-36387
OBJECT_ID      = 2026-018X
CENTER_NAME    = EARTH
REF_FRAME      = TEME
TIME_SYSTEM    = UTC
MEAN_ELEMENT_THEORY = SGP/SGP4

EPOCH          = 2026-02-05T18:00:02.000160
MEAN_MOTION    = 15.98835947
ECCENTRICITY   = .00013661
INCLINATION    = 97.2766
RA_OF_ASC_NODE = 100.8530
ARG_OF_PERICENTER = 86.2216
MEAN_ANOMALY   = 194.6656

EPHEMERIS_TYPE = 0
CLASSIFICATION_TYPE = U
NORAD_CAT_ID   = 67610
ELEMENT_SET_NO = 999
REV_AT_EPOCH   = 226
BSTAR          = -.36112806E-2
MEAN_MOTION_DOT = -.1699528E-1
MEAN_MOTION_DDOT = .86472926E-3

CCSDS_OMM_VERS = 2.0
CREATION_DATE  = 
ORIGINATOR     = 

OBJECT_NAME    = STARLINK-36636
OBJECT_ID      = 2026-018Y
CENTER_NAME    = EARTH
REF_FRAME      = TEME
TIME_SYSTEM    = UTC
MEAN_ELEMENT_THEORY = SGP/SGP4

EPOCH          = 2026-02-05T18:00:02.000160
MEAN_MOTION    = 15.99003238
ECCENTRICITY   = .00012941
INCLINATION    = 97.2766
RA_OF_ASC_NODE = 100.8542
ARG_OF_PERICENTER = 89.8130
MEAN_ANOMALY   = 193.5832

EPHEMERIS_TYPE = 0
CLASSIFICATION_TYPE = U
NORAD_CAT_ID   = 67611
ELEMENT_SET_NO = 999
REV_AT_EPOCH   = 221
BSTAR          = -.35630549E-2
MEAN_MOTION_DOT = -.16926E-1
MEAN_MOTION_DDOT = .85976527E-3

CCSDS_OMM_VERS = 2.0
CREATION_DATE  = 
ORIGINATOR     = 

OBJECT_NAME    = STARLINK-36407
OBJECT_ID      = 2026-018Z
CENTER_NAME    = EARTH
REF_FRAME      = TEME
TIME_SYSTEM    = UTC
MEAN_ELEMENT_THEORY = SGP/SGP4

EPOCH          = 2026-02-05T18:00:02.000160
MEAN_MOTION    = 15.99148875
ECCENTRICITY   = .00013535
INCLINATION    = 97.2766
RA_OF_ASC_NODE = 100.8553
ARG_OF_PERICENTER = 82.7310
MEAN_ANOMALY   = 202.8300

EPHEMERIS_TYPE = 0
CLASSIFICATION_TYPE = U
NORAD_CAT_ID   = 67612
ELEMENT_SET_NO = 999
REV_AT_EPOCH   = 231
BSTAR          = -.35414809E-2
MEAN_MOTION_DOT = -.169606E-1
MEAN_MOTION_DDOT = .86446777E-3

CCSDS_OMM_VERS = 2.0
CREATION_DATE  = 
ORIGINATOR     = 

OBJECT_NAME    = STARLINK-36597
OBJECT_ID      = 2026-018AA
CENTER_NAME    = EARTH
REF_FRAME      = TEME
TIME_SYSTEM    = UTC
MEAN_ELEMENT_THEORY = SGP/SGP4

EPOCH          = 2026-02-05T18:00:02.000160
MEAN_MOTION    = 15.99301131
ECCENTRICITY   = .00013649
INCLINATION    = 97.2762
RA_OF_ASC_NODE = 100.8560
ARG_OF_PERICENTER = 83.6524
MEAN_ANOMALY   = 204.2945

EPHEMERIS_TYPE = 0
CLASSIFICATION_TYPE = U
NORAD_CAT_ID   = 67613
ELEMENT_SET_NO = 999
REV_AT_EPOCH   = 221
BSTAR          = -.34872688E-2
MEAN_MOTION_DOT = -.168452E-1
MEAN_MOTION_DDOT = .85497561E-3

CCSDS_OMM_VERS = 2.0
CREATION_DATE  = 
ORIGINATOR     = 

OBJECT_NAME    = NEONSAT-1A
OBJECT_ID      = 2026-019A
CENTER_NAME    = EARTH
REF_FRAME      = TEME
TIME_SYSTEM    = UTC
MEAN_ELEMENT_THEORY = SGP/SGP4

EPOCH          = 2026-02-05T18:56:22.897824
MEAN_MOTION    = 15.07556869
ECCENTRICITY   = .0011697
INCLINATION    = 97.4095
RA_OF_ASC_NODE = 161.5182
ARG_OF_PERICENTER = 285.4139
MEAN_ANOMALY   = 74.5797

EPHEMERIS_TYPE = 0
CLASSIFICATION_TYPE = U
NORAD_CAT_ID   = 67614
ELEMENT_SET_NO = 999
REV_AT_EPOCH   = 101
BSTAR          = .40435E-3
MEAN_MOTION_DOT = .6096E-4
MEAN_MOTION_DDOT = 0

CCSDS_OMM_VERS = 2.0
CREATION_DATE  = 
ORIGINATOR     = 

OBJECT_NAME    = STARLINK-36548
OBJECT_ID      = 2026-020A
CENTER_NAME    = EARTH
REF_FRAME      = TEME
TIME_SYSTEM    = UTC
MEAN_ELEMENT_THEORY = SGP/SGP4

EPOCH          = 2026-02-05T18:00:02.000160
MEAN_MOTION    = 15.92899248
ECCENTRICITY   = .00016961
INCLINATION    = 42.9998
RA_OF_ASC_NODE = 336.7624
ARG_OF_PERICENTER = 249.2513
MEAN_ANOMALY   = 335.1661

EPHEMERIS_TYPE = 0
CLASSIFICATION_TYPE = U
NORAD_CAT_ID   = 67617
ELEMENT_SET_NO = 999
REV_AT_EPOCH   = 225
BSTAR          = -.48399327E-2
MEAN_MOTION_DOT = -.1736301E-1
MEAN_MOTION_DDOT = .83807072E-3

CCSDS_OMM_VERS = 2.0
CREATION_DATE  = 
ORIGINATOR     = 

OBJECT_NAME    = STARLINK-36601
OBJECT_ID      = 2026-020B
CENTER_NAME    = EARTH
REF_FRAME      = TEME
TIME_SYSTEM    = UTC
MEAN_ELEMENT_THEORY = SGP/SGP4

EPOCH          = 2026-02-05T18:00:02.000160
MEAN_MOTION    = 15.93016029
ECCENTRICITY   = .00017279
INCLINATION    = 43.0000
RA_OF_ASC_NODE = 336.7584
ARG_OF_PERICENTER = 252.2504
MEAN_ANOMALY   = 333.7683

EPHEMERIS_TYPE = 0
CLASSIFICATION_TYPE = U
NORAD_CAT_ID   = 67618
ELEMENT_SET_NO = 999
REV_AT_EPOCH   = 225
BSTAR          = -.47980584E-2
MEAN_MOTION_DOT = -.1731952E-1
MEAN_MOTION_DDOT = .83515906E-3

CCSDS_OMM_VERS = 2.0
CREATION_DATE  = 
ORIGINATOR     = 

OBJECT_NAME    = STARLINK-36119
OBJECT_ID      = 2026-020C
CENTER_NAME    = EARTH
REF_FRAME      = TEME
TIME_SYSTEM    = UTC
MEAN_ELEMENT_THEORY = SGP/SGP4

EPOCH          = 2026-02-05T18:00:02.000160
MEAN_MOTION    = 15.93095858
ECCENTRICITY   = .00016907
INCLINATION    = 42.9999
RA_OF_ASC_NODE = 336.7554
ARG_OF_PERICENTER = 252.5285
MEAN_ANOMALY   = 334.7146

EPHEMERIS_TYPE = 0
CLASSIFICATION_TYPE = U
NORAD_CAT_ID   = 67619
ELEMENT_SET_NO = 999
REV_AT_EPOCH   = 225
BSTAR          = -.4773575E-2
MEAN_MOTION_DOT = -.1730385E-1
MEAN_MOTION_DDOT = .83442228E-3

