STARLINK-36411          
1 67608U 26018V   26036.75002315 -.01719378  87960-3 -37395-2 0  9994
2 67608  97.2769 100.8504 0001443  82.5393 192.2311 15.98419105  2250
STARLINK-36312          
1 67609U 26018W   26036.75002315 -.01707922  87048-3 -36761-2 0  9990
2 67609  97.2770 100.8517 0001452  80.6887 196.8870 15.98605185  2260
STARLINK-36387          
1 67610U 26018X   26036.75002315 -.01699528  86473-3 -36113-2 0  9996
2 67610  97.2766 100.8530 0001366  86.2216 194.6656 15.98835947  2263
STARLINK-36636          
1 67611U 26018Y   26036.75002315 -.01692600  85977-3 -35631-2 0  9993
2 67611  97.2766 100.8542 0001294  89.8130 193.5832 15.99003238  2211
STARLINK-36407          
1 67612U 26018Z   26036.75002315 -.01696060  86447-3 -35415-2 0  9991
2 67612  97.2766 100.8553 0001353  82.7310 202.8300 15.99148875  2314
STARLINK-36597          
1 67613U 26018AA  26036.75002315 -.01684520  85498-3 -34873-2 0  9992
2 67613  97.2762 100.8560 0001364  83.6524 204.2945 15.99301131  2214
NEONSAT-1A              
1 67614U 26019A   26036.78915391  .00006096  00000+0  40435-3 0  9991
2 67614  97.4095 161.5182 0011697 285.4139  74.5797 15.07556869  1013
STARLINK-36548          
1 67617U 26020A   26036.75002315 -.01736301  83807-3 -48399-2 0  9994
2 67617  42.9998 336.7624 0001696 249.2513 335.1661 15.92899248  2250
STARLINK-36601          
1 67618U 26020B   26036.75002315 -.01731952  83516-3 -47981-2 0  9995
2 67618  43.0000 336.7584 0001727 252.2504 333.7683 15.93016029  2258
STARLINK-36119          
1 67619U 26020C   26036.75002315 -.01730385  83442-3 -47736-2 0  9991
2 67619  42.9999 336.7554 0001690 252.5285 334.7146 15.93095858  2251
